[{"OBJECT_NAME":"ASTROCAST-0101","OBJECT_ID":"2021-006T","EPOCH":"2026-03-09T22:32:49.923744","MEAN_MOTION":15.63443046,"ECCENTRICITY":0.00044484,"INCLINATION":97.2456,"RA_OF_ASC_NODE":134.2419,"ARG_OF_PERICENTER":131.2245,"MEAN_ANOMALY":228.9398,"EPHEMERIS_TYPE":0,"CLASSIFICATION_TYPE":"U","NORAD_CAT_ID":47430,"ELEMENT_SET_NO":999,"REV_AT_EPOCH":28437,"BSTAR":0.00059013245,"MEAN_MOTION_DOT":0.00054601,"MEAN_MOTION_DDOT":0},{"OBJECT_NAME":"STARLINK-2363","OBJECT_ID":"2021-021AV","EPOCH":"2026-03-10T00:00:02.999808","MEAN_MOTION":15.64981779,"ECCENTRICITY":0.00011599,"INCLINATION":53.1594,"RA_OF_ASC_NODE":250.7661,"ARG_OF_PERICENTER":51.6723,"MEAN_ANOMALY":183.7852,"EPHEMERIS_TYPE":0,"CLASSIFICATION_TYPE":"U","NORAD_CAT_ID":47903,"ELEMENT_SET_NO":999,"REV_AT_EPOCH":582,"BSTAR":0.00044293637,"MEAN_MOTION_DOT":0.00043966,"MEAN_MOTION_DDOT":0}]
